FORMOSAT 7-6            
1 44353U 19036Q   26188.36085028  .00001939  00000+0  14020-3 0  9996
2 44353  23.9964 193.6160 0000948 357.2209   2.8286 14.96592910384848
FORMOSAT 7-5            
1 44358U 19036V   26188.13816421  .00002309  00000+0  17207-3 0  9997
2 44358  23.9969 133.8652 0000602  96.0147 264.0422 14.96569224385348
METEOR-M2 2             
1 44387U 19038A   26188.47552784 -.00000041  00000+0  21228-5 0  9999
2 44387  98.9159 176.0611 0001198  18.4195 341.7026 14.24371280364185
GLOBAL-4                
1 44499U 19054E   26188.17980437  .00047212  00000+0  44452-3 0  9990
2 44499  45.0043 120.8797 0004271 139.7591 220.3623 15.66393813383491
ZY-1 02D                
1 44528U 19059A   26188.49380321  .00000417  00000+0  16129-3 0  9995
2 44528  98.6710 250.0124 0003484 328.5402  31.5574 14.35268317357250
TAURUS-1 (JINNIUZUO 1)  
1 44530U 19059C   26188.49659604  .00005309  00000+0  84766-3 0  9998
2 44530  98.6438 354.5891 0007533 242.1801 117.8642 14.72322903361638
ZHUHAI-1 03B            
1 44536U 19060C   26188.52273299  .00022071  00000+0  32640-3 0  9991
2 44536  97.5551 347.4056 0007953 235.1943 124.8563 15.55294519379482
ZHUHAI-1 03D            
1 44538U 19060E   26188.49070447  .00021898  00000+0  37812-3 0  9991
2 44538  97.5397 339.3158 0007033 220.3710 139.7020 15.50994157379227
ZHUHAI-1 03E            
1 44539U 19060F   26188.49816969  .00012120  00000+0  28870-3 0  9991
2 44539  97.5636 339.1621 0004508 312.5413  47.5453 15.41744796378895
GAOFEN-7                
1 44703U 19072A   26187.27343240  .00003770  00000+0  17040-3 0  9997
2 44703  97.2414 248.0195 0016775 334.6662  25.3750 15.21410160370544
JILIN-1 GAOFEN 2A       
1 44777U 19075A   26188.47854875  .00009690  00000+0  24591-3 0  9991
2 44777  97.4957 272.7498 0005948  23.4498 336.7018 15.39870856368004
NINGXIA-1 1             
1 44779U 19076A   26188.27624925 -.00000069  00000+0  39493-4 0  9993
2 44779  45.0059  90.0769 0011620 255.0497 104.9051 14.02041187340677
NINGXIA-1 5             
1 44783U 19076E   26188.50261652  .00000090  00000+0  14279-3 0  9995
2 44783  45.0055  88.3993 0011300 247.3392 112.6248 14.02089774340623
KL-ALPHA A              
1 44785U 19077A   26188.48570190  .00000083  00000+0  10121-3 0  9999
2 44785  88.9236 220.3451 0012999  56.1794 304.0596 13.56045248328485
CARTOSAT-3              
1 44804U 19081A   26188.50916001  .00006169  00000+0  29484-3 0  9997
2 44804  97.4292 250.0488 0013358  85.1061 275.1698 15.19294202366551
JILIN-1 GAOFEN 2B       
1 44836U 19086A   26188.47818160  .00004471  00000+0  20475-3 0  9995
2 44836  97.4871 260.3439 0012670 244.9573 115.0347 15.20942232363575
TIANQIN 1 (CAS-6)       
1 44879U 19093A   26188.49661677  .00002938  00000+0  27004-3 0  9992
2 44879  97.7795 272.1914 0010655 352.5203   7.5857 14.95535088355082
ETRSS-1                 
1 44880U 19093B   26188.49748443  .00002372  00000+0  21662-3 0  9997
2 44880  97.7812 272.6692 0010833 352.2972   7.8081 14.95979722355090
TIANYAN 01              
1 44881U 19093C   26188.50755184  .00001260  00000+0  14807-3 0  9998
2 44881  97.7521 260.2441 0014272  26.2466 333.9470 14.86556721354432
TIANYAN 02              
1 44882U 19093D   26188.52626419  .00004236  00000+0  29872-3 0  9993
2 44882  97.7940 283.5149 0012276 318.3031  41.7258 15.05478807355671
CBERS 4A                
1 44883U 19093E   26188.48797997  .00001621  00000+0  21389-3 0  9999
2 44883  98.0179 255.9453 0001005 133.9820 226.1475 14.81439192354087
WEILAI 1R               
1 44884U 19093F   26188.52402002  .00003770  00000+0  30072-3 0  9991
2 44884  97.7872 278.4452 0016508 333.8972  26.1417 15.00826463355477
FLORIPASAT-1            
1 44885U 19093G   26188.51760571  .00004146  00000+0  30342-3 0  9997
2 44885  97.7930 282.9009 0011514  10.7709 349.3761 15.04102563355702
SHUNTIAN                
1 44886U 19093H   26188.48536063  .00001583  00000+0  14897-3 0  9990
2 44886  97.8011 276.5446 0011718   5.3672 354.7672 14.95261744355216
ELEKTRO-L 3             
1 44903U 19095A   26188.51658440 -.00000082  00000+0  00000+0 0  9991
2 44903   0.3059  82.1065 0001497  13.9900  91.3503  1.00271960 23916
GONETS-M 14             
1 44905U 19096A   26188.49474256  .00000128  00000+0  85509-3 0  9993
2 44905  82.5222  72.0500 0014270 105.8689 254.3965 12.42871015296204
GONETS-M 15             
1 44906U 19096B   26188.52412757  .00000057  00000+0  34245-3 0  9998
2 44906  82.5242  72.4966 0015795 127.7999 232.4514 12.42872308296176
GONETS-M 16             
1 44907U 19096C   26188.46950779  .00000081  00000+0  51054-3 0  9997
2 44907  82.5188  71.4731 0010638 167.9180 192.2157 12.42892612296158
