OBJECT_NAME,OBJECT_ID,EPOCH,MEAN_MOTION,ECCENTRICITY,INCLINATION,RA_OF_ASC_NODE,ARG_OF_PERICENTER,MEAN_ANOMALY,EPHEMERIS_TYPE,CLASSIFICATION_TYPE,NORAD_CAT_ID,ELEMENT_SET_NO,REV_AT_EPOCH,BSTAR,MEAN_MOTION_DOT,MEAN_MOTION_DDOT
FORMOSAT 7-6,2019-036Q,2026-07-07T08:39:37.464192,14.96592910,.0000948,23.9964,193.6160,357.2209,2.8286,0,U,44353,999,38484,.1402E-3,.1939E-4,0
FORMOSAT 7-5,2019-036V,2026-07-07T03:18:57.387744,14.96569224,.0000602,23.9969,133.8652,96.0147,264.0422,0,U,44358,999,38534,.17207E-3,.2309E-4,0
METEOR-M2 2,2019-038A,2026-07-07T11:24:45.605376,14.24371280,.0001198,98.9159,176.0611,18.4195,341.7026,0,U,44387,999,36418,.21228E-5,-.41E-6,0
GLOBAL-4,2019-054E,2026-07-07T04:18:55.097568,15.66393813,.0004271,45.0043,120.8797,139.7591,220.3623,0,U,44499,999,38349,.44452E-3,.47212E-3,0
ZY-1 02D,2019-059A,2026-07-07T11:51:04.597344,14.35268317,.0003484,98.6710,250.0124,328.5402,31.5574,0,U,44528,999,35725,.16129E-3,.417E-5,0
TAURUS-1 (JINNIUZUO 1),2019-059C,2026-07-07T11:55:05.897856,14.72322903,.0007533,98.6438,354.5891,242.1801,117.8642,0,U,44530,999,36163,.84766E-3,.5309E-4,0
ZHUHAI-1 03B,2019-060C,2026-07-07T12:32:44.130336,15.55294519,.0007953,97.5551,347.4056,235.1943,124.8563,0,U,44536,999,37948,.3264E-3,.22071E-3,0
ZHUHAI-1 03D,2019-060E,2026-07-07T11:46:36.866208,15.50994157,.0007033,97.5397,339.3158,220.3710,139.7020,0,U,44538,999,37922,.37812E-3,.21898E-3,0
ZHUHAI-1 03E,2019-060F,2026-07-07T11:57:21.861216,15.41744796,.0004508,97.5636,339.1621,312.5413,47.5453,0,U,44539,999,37889,.2887E-3,.1212E-3,0
GAOFEN-7,2019-072A,2026-07-06T06:33:44.559360,15.21410160,.00167753,97.2414,248.0195,334.6662,25.3750,0,U,44703,999,37054,.17040383E-3,.377E-4,0
JILIN-1 GAOFEN 2A,2019-075A,2026-07-07T11:29:06.612000,15.39870856,.0005948,97.4957,272.7498,23.4498,336.7018,0,U,44777,999,36800,.24591E-3,.969E-4,0
NINGXIA-1 1,2019-076A,2026-07-07T06:37:47.935200,14.02041187,.001162,45.0059,90.0769,255.0497,104.9051,0,U,44779,999,34067,.39493E-4,-.69E-6,0
NINGXIA-1 5,2019-076E,2026-07-07T12:03:46.067328,14.02089774,.00113,45.0055,88.3993,247.3392,112.6248,0,U,44783,999,34062,.14279E-3,.9E-6,0
KL-ALPHA A,2019-077A,2026-07-07T11:39:24.644160,13.56045248,.0012999,88.9236,220.3451,56.1794,304.0596,0,U,44785,999,32848,.10121E-3,.83E-6,0
CARTOSAT-3,2019-081A,2026-07-07T12:13:11.424864,15.19294202,.0013358,97.4292,250.0488,85.1061,275.1698,0,U,44804,999,36655,.29484E-3,.6169E-4,0
JILIN-1 GAOFEN 2B,2019-086A,2026-07-07T11:28:34.890240,15.20942232,.001267,97.4871,260.3439,244.9573,115.0347,0,U,44836,999,36357,.20475E-3,.4471E-4,0
TIANQIN 1 (CAS-6),2019-093A,2026-07-07T11:55:07.688928,14.95535088,.0010655,97.7795,272.1914,352.5203,7.5857,0,U,44879,999,35508,.27004E-3,.2938E-4,0
ETRSS-1,2019-093B,2026-07-07T11:56:22.654752,14.95979722,.0010833,97.7812,272.6692,352.2972,7.8081,0,U,44880,999,35509,.21662E-3,.2372E-4,0
TIANYAN 01,2019-093C,2026-07-07T12:10:52.478976,14.86556721,.0014272,97.7521,260.2441,26.2466,333.9470,0,U,44881,999,35443,.14807E-3,.126E-4,0
TIANYAN 02,2019-093D,2026-07-07T12:37:49.226016,15.05478807,.0012276,97.7940,283.5149,318.3031,41.7258,0,U,44882,999,35567,.29872E-3,.4236E-4,0
CBERS 4A,2019-093E,2026-07-07T11:42:41.469408,14.81439192,.0001005,98.0179,255.9453,133.9820,226.1475,0,U,44883,999,35408,.21389E-3,.1621E-4,0
WEILAI 1R,2019-093F,2026-07-07T12:34:35.329728,15.00826463,.0016508,97.7872,278.4452,333.8972,26.1417,0,U,44884,999,35547,.30072E-3,.377E-4,0
FLORIPASAT-1,2019-093G,2026-07-07T12:25:21.133344,15.04102563,.0011514,97.7930,282.9009,10.7709,349.3761,0,U,44885,999,35570,.30342E-3,.4146E-4,0
SHUNTIAN,2019-093H,2026-07-07T11:38:55.158432,14.95261744,.0011718,97.8011,276.5446,5.3672,354.7672,0,U,44886,999,35521,.14897E-3,.1583E-4,0
ELEKTRO-L 3,2019-095A,2026-07-07T12:23:52.892160,1.00271960,.0001497,0.3059,82.1065,13.9900,91.3503,0,U,44903,999,2391,0,-.82E-6,0
GONETS-M 14,2019-096A,2026-07-07T11:52:25.757184,12.42871015,.001427,82.5222,72.0500,105.8689,254.3965,0,U,44905,999,29620,.85509E-3,.128E-5,0
GONETS-M 15,2019-096B,2026-07-07T12:34:44.622048,12.42872308,.0015795,82.5242,72.4966,127.7999,232.4514,0,U,44906,999,29617,.34245E-3,.57E-6,0
GONETS-M 16,2019-096C,2026-07-07T11:16:05.473056,12.42892612,.0010638,82.5188,71.4731,167.9180,192.2157,0,U,44907,999,29615,.51054E-3,.81E-6,0
